{
  "type": "FeatureCollection",
  "features": [
    {
      "type": "Feature",
      "properties": {
        "norad_id": 34962,
        "name": "COSMOS 2251 DEB",
        "group": "cosmos-2251-debris",
        "lat": 13.792969820364062,
        "lon": -162.8334535704089,
        "alt_km": 732.8249324178059,
        "timestamp": "2025-12-12T20:43:07.431400+00:00",
        "meta_object_name": "COSMOS 2251 DEB",
        "meta_object_id": "1993-036AER",
        "meta_epoch": "2025-12-10T13:52:41.169792",
        "meta_mean_motion": 14.46507093,
        "meta_eccentricity": 0.0018754,
        "meta_inclination": 74.0294,
        "meta_ra_of_asc_node": 197.4019,
        "meta_arg_of_pericenter": 310.673,
        "meta_mean_anomaly": 49.2798,
        "meta_ephemeris_type": 0,
        "meta_classification_type": "U",
        "meta_norad_cat_id": 34962,
        "meta_element_set_no": 999,
        "meta_rev_at_epoch": 87547,
        "meta_bstar": 0.00061582,
        "meta_mean_motion_dot": 2.195e-05,
        "meta_mean_motion_ddot": 0,
        "tle_line1": "1 34962U 93036AER 25344.57825428  .00002195  00000+0  61582-3 0  9995",
        "tle_line2": "2 34962  74.0294 197.4019 0018754 310.6730  49.2798 14.46507093875477"
      },
      "geometry": {
        "type": "Point",
        "coordinates": [
          -162.8334535704089,
          13.792969820364062
        ]
      }
    },
    {
      "type": "Feature",
      "properties": {
        "norad_id": 34963,
        "name": "COSMOS 2251 DEB",
        "group": "cosmos-2251-debris",
        "lat": -73.48617122477489,
        "lon": -30.593217697020375,
        "alt_km": 704.6426210828249,
        "timestamp": "2025-12-12T20:43:07.431411+00:00",
        "meta_object_name": "COSMOS 2251 DEB",
        "meta_object_id": "1993-036AES",
        "meta_epoch": "2025-12-08T12:52:00.806016",
        "meta_mean_motion": 14.51014391,
        "meta_eccentricity": 0.0042597,
        "meta_inclination": 74.1718,
        "meta_ra_of_asc_node": 50.5866,
        "meta_arg_of_pericenter": 247.8405,
        "meta_mean_anomaly": 111.8233,
        "meta_ephemeris_type": 0,
        "meta_classification_type": "U",
        "meta_norad_cat_id": 34963,
        "meta_element_set_no": 999,
        "meta_rev_at_epoch": 86740,
        "meta_bstar": 0.0019565,
        "meta_mean_motion_dot": 7.813e-05,
        "meta_mean_motion_ddot": 0,
        "tle_line1": "1 34963U 93036AES 25342.53612044  .00007813  00000+0  19565-2 0  9993",
        "tle_line2": "2 34963  74.1718  50.5866 0042597 247.8405 111.8233 14.51014391867405"
      },
      "geometry": {
        "type": "Point",
        "coordinates": [
          -30.593217697020375,
          -73.48617122477489
        ]
      }
    },
    {
      "type": "Feature",
      "properties": {
        "norad_id": 34964,
        "name": "COSMOS 2251 DEB",
        "group": "cosmos-2251-debris",
        "lat": -73.62043697357475,
        "lon": -90.3498907199259,
        "alt_km": 836.4441903934203,
        "timestamp": "2025-12-12T20:43:07.431421+00:00",
        "meta_object_name": "COSMOS 2251 DEB",
        "meta_object_id": "1993-036AET",
        "meta_epoch": "2025-12-11T09:08:17.866176",
        "meta_mean_motion": 14.00597574,
        "meta_eccentricity": 0.02128281,
        "meta_inclination": 73.9709,
        "meta_ra_of_asc_node": 350.2008,
        "meta_arg_of_pericenter": 208.8532,
        "meta_mean_anomaly": 150.07,
        "meta_ephemeris_type": 0,
        "meta_classification_type": "U",
        "meta_norad_cat_id": 34964,
        "meta_element_set_no": 999,
        "meta_rev_at_epoch": 84459,
        "meta_bstar": 0.0021903006,
        "meta_mean_motion_dot": 3.941e-05,
        "meta_mean_motion_ddot": 0,
        "tle_line1": "1 34964U 93036AET 25345.38076234  .00003941  00000+0  21903-2 0  9992",
        "tle_line2": "2 34964  73.9709 350.2008 0212828 208.8532 150.0700 14.00597574844597"
      },
      "geometry": {
        "type": "Point",
        "coordinates": [
          -90.3498907199259,
          -73.62043697357475
        ]
      }
    },
    {
      "type": "Feature",
      "properties": {
        "norad_id": 34965,
        "name": "COSMOS 2251 DEB",
        "group": "cosmos-2251-debris",
        "lat": 2.493589835306718,
        "lon": 128.9501145971368,
        "alt_km": 737.7289557047179,
        "timestamp": "2025-12-12T20:43:07.431431+00:00",
        "meta_object_name": "COSMOS 2251 DEB",
        "meta_object_id": "1993-036AEU",
        "meta_epoch": "2025-12-11T16:31:55.941024",
        "meta_mean_motion": 14.48702604,
        "meta_eccentricity": 0.00265275,
        "meta_inclination": 74.0514,
        "meta_ra_of_asc_node": 130.4344,
        "meta_arg_of_pericenter": 257.9061,
        "meta_mean_anomaly": 101.9126,
        "meta_ephemeris_type": 0,
        "meta_classification_type": "U",
        "meta_norad_cat_id": 34965,
        "meta_element_set_no": 999,
        "meta_rev_at_epoch": 87098,
        "meta_bstar": 0.00059390129,
        "meta_mean_motion_dot": 2.221e-05,
        "meta_mean_motion_ddot": 0,
        "tle_line1": "1 34965U 93036AEU 25345.68884191  .00002221  00000+0  59390-3 0  9997",
        "tle_line2": "2 34965  74.0514 130.4344 0026527 257.9061 101.9126 14.48702604870989"
      },
      "geometry": {
        "type": "Point",
        "coordinates": [
          128.9501145971368,
          2.493589835306718
        ]
      }
    },
    {
      "type": "Feature",
      "properties": {
        "norad_id": 34967,
        "name": "COSMOS 2251 DEB",
        "group": "cosmos-2251-debris",
        "lat": -73.96569889736713,
        "lon": 166.39433895609983,
        "alt_km": 768.3788114133404,
        "timestamp": "2025-12-12T20:43:07.431442+00:00",
        "meta_object_name": "COSMOS 2251 DEB",
        "meta_object_id": "1993-036AEW",
        "meta_epoch": "2025-12-11T01:54:29.105856",
        "meta_mean_motion": 14.44250286,
        "meta_eccentricity": 0.00379354,
        "meta_inclination": 73.9933,
        "meta_ra_of_asc_node": 256.9557,
        "meta_arg_of_pericenter": 43.5887,
        "meta_mean_anomaly": 316.8256,
        "meta_ephemeris_type": 0,
        "meta_classification_type": "U",
        "meta_norad_cat_id": 34967,
        "meta_element_set_no": 999,
        "meta_rev_at_epoch": 64933,
        "meta_bstar": 0.0010619117,
        "meta_mean_motion_dot": 3.655e-05,
        "meta_mean_motion_ddot": 0,
        "tle_line1": "1 34967U 93036AEW 25345.07950354  .00003655  00000+0  10619-2 0  9999",
        "tle_line2": "2 34967  73.9933 256.9557 0037935  43.5887 316.8256 14.44250286649338"
      },
      "geometry": {
        "type": "Point",
        "coordinates": [
          166.39433895609983,
          -73.96569889736713
        ]
      }
    },
    {
      "type": "Feature",
      "properties": {
        "norad_id": 34968,
        "name": "COSMOS 2251 DEB",
        "group": "cosmos-2251-debris",
        "lat": 43.469212151632405,
        "lon": 51.09205520518077,
        "alt_km": 727.7032351728103,
        "timestamp": "2025-12-12T20:43:07.431452+00:00",
        "meta_object_name": "COSMOS 2251 DEB",
        "meta_object_id": "1993-036AEX",
        "meta_epoch": "2025-12-12T03:39:29.952000",
        "meta_mean_motion": 14.59405084,
        "meta_eccentricity": 0.00865843,
        "meta_inclination": 74.0388,
        "meta_ra_of_asc_node": 248.1884,
        "meta_arg_of_pericenter": 8.6879,
        "meta_mean_anomaly": 351.576,
        "meta_ephemeris_type": 0,
        "meta_classification_type": "U",
        "meta_norad_cat_id": 34968,
        "meta_element_set_no": 999,
        "meta_rev_at_epoch": 88469,
        "meta_bstar": 0.00026640789,
        "meta_mean_motion_dot": 1.298e-05,
        "meta_mean_motion_ddot": 0,
        "tle_line1": "1 34968U 93036AEX 25346.15243000  .00001298  00000+0  26641-3 0  9997",
        "tle_line2": "2 34968  74.0388 248.1884 0086584   8.6879 351.5760 14.59405084884698"
      },
      "geometry": {
        "type": "Point",
        "coordinates": [
          51.09205520518077,
          43.469212151632405
        ]
      }
    },
    {
      "type": "Feature",
      "properties": {
        "norad_id": 34969,
        "name": "COSMOS 2251 DEB",
        "group": "cosmos-2251-debris",
        "lat": -31.384883598206887,
        "lon": -147.00850678728068,
        "alt_km": 760.4470714044546,
        "timestamp": "2025-12-12T20:43:07.431489+00:00",
        "meta_object_name": "COSMOS 2251 DEB",
        "meta_object_id": "1993-036AEY",
        "meta_epoch": "2025-12-09T11:16:06.111552",
        "meta_mean_motion": 14.32248944,
        "meta_eccentricity": 0.00738203,
        "meta_inclination": 74.0146,
        "meta_ra_of_asc_node": 29.119,
        "meta_arg_of_pericenter": 163.1468,
        "meta_mean_anomaly": 197.2162,
        "meta_ephemeris_type": 0,
        "meta_classification_type": "U",
        "meta_norad_cat_id": 34969,
        "meta_element_set_no": 999,
        "meta_rev_at_epoch": 65090,
        "meta_bstar": 0.00049233942,
        "meta_mean_motion_dot": 1.343e-05,
        "meta_mean_motion_ddot": 0,
        "tle_line1": "1 34969U 93036AEY 25343.46951518  .00001343  00000+0  49234-3 0  9993",
        "tle_line2": "2 34969  74.0146  29.1190 0073820 163.1468 197.2162 14.32248944650905"
      },
      "geometry": {
        "type": "Point",
        "coordinates": [
          -147.00850678728068,
          -31.384883598206887
        ]
      }
    }
  ]
}